1 48210C 21031A   22249.64046711  .00000567  00000+0  15311-2 0  2498
2 48210  87.9086 203.9758 0001834  79.7267  19.6432 13.14506136    19
1 48210C 21031A   22249.93595323 -.00002726  00000+0 -73605-2 0  2499
2 48210  87.9086 203.9174 0001837  79.9239 336.9508 13.14511435    12
1 48210C 21031A   22250.47866155 -.00002578  00000+0 -69618-2 0  2500
2 48210  87.9088 203.8100 0001827  80.0313  23.5998 13.14510456    11
1 48210C 21031A   22250.77481896  .00002109  00000+0  56947-2 0  2507
2 48210  87.9088 203.7515 0001829  79.9182 344.4011 13.14505394    19
1 48210C 21031A   22251.01616155 -.00004337  00000+0 -11712-1 0  2511
2 48210  87.9089 203.7037 0001820  80.0627  45.6906 13.14510906    15
1 48210C 21031A   22251.32067544  .00001407  00000+0  38005-2 0  2515
2 48210  87.9090 203.6435 0001821  80.2396  45.7224 13.14505662    11
1 48210C 21031A   22251.54463377 -.00002815  00000+0 -76018-2 0  2515
2 48210  87.9090 203.5992 0001815  80.2101  24.9685 13.14508277    10
1 48210C 21031A   22251.84079118 -.00000058  00000+0 -15563-3 0  2510
2 48210  87.9090 203.5406 0001821  80.3288 345.5323 13.14506694    16
1 48210C 21031A   22252.08143933 -.00003184  00000+0 -85978-2 0  2524
2 48210  87.9091 203.4930 0001810  80.3131  43.7014 13.14507035    17
1 48210C 21031A   22252.38282822 -.00000891  00000+0 -24073-2 0  2529
2 48210  87.9091 203.4333 0001812  80.7341  28.7031 13.14506417    18
1 48210C 21031A   22252.59498099 -.00001538  00000+0 -41526-2 0  2528
2 48210  87.9092 203.3913 0001806  80.7335 312.0881 13.14504460    16
1 48210C 21031A   22252.82380046  .00000509  00000+0  13755-2 0  2524
2 48210  87.9092 203.3461 0001812  80.6189 314.4059 13.14504141    16
1 48210C 21031A   22253.07102266 -.00003322  00000+0 -89711-2 0  2532
2 48210  87.9092 203.2971 0001805  80.7248  43.5432 13.14505363    12
1 48210C 21031A   22253.29880044  .00001778  00000+0  48010-2 0  2531
2 48210  87.9093 203.2520 0001810  80.9768  40.5699 13.14501450    13
1 48210C 21031A   22253.58456433 -.00001482  00000+0 -40037-2 0  2539
2 48210  87.9093 203.1954 0001803  81.0986 311.9729 13.14502761    14
1 48210C 21031A   22253.82692545  .00000524  00000+0  14142-2 0  2534
2 48210  87.9093 203.1474 0001812  81.1531  18.1655 13.14502599    11
1 48210C 21031A   22254.06060600 -.00003153  00000+0 -85154-2 0  2547
2 48210  87.9094 203.1012 0001804  81.0491  43.4657 13.14503883    15
1 48210C 21031A   22254.28873100  .00002362  00000+0  63802-2 0  2543
2 48210  87.9094 203.0560 0001810  81.2343  42.2005 13.14499577    15
1 48210C 21031A   22254.59116155 -.00000739  00000+0 -19953-2 0  2543
2 48210  87.9095 202.9961 0001804  81.1085  32.6747 13.14501089    12
1 48210C 21031A   22254.80296712  .00001803  00000+0  48681-2 0  2546
2 48210  87.9095 202.9542 0001811  81.1164 314.4007 13.14500456    10
1 48210C 21031A   22255.04984211 -.00002802  00000+0 -75669-2 0  2550
2 48210  87.9096 202.9053 0001806  81.1876  41.9270 13.14503186    19
1 48210C 21031A   22255.27935601  .00003068  00000+0  82853-2 0  2550
2 48210  87.9097 202.8599 0001813  81.3095  47.2937 13.14498615    16
1 48210C 21031A   22255.58005044 -.00000389  00000+0 -10493-2 0  2559
2 48210  87.9097 202.8004 0001807  81.1225  29.6170 13.14500977    11
1 48210C 21031A   22255.80643934  .00002092  00000+0  56501-2 0  2551
2 48210  87.9098 202.7555 0001816  81.2516  20.1934 13.14500675    15
1 48210C 21031A   22256.03942544 -.00002425  00000+0 -65491-2 0  2567
2 48210  87.9099 202.7094 0001810  81.1039  42.2511 13.14503602    16
1 48210C 21031A   22256.33907822  .00002051  00000+0  55377-2 0  2565
2 48210  87.9099 202.6501 0001817  81.2281  19.3361 13.14501456    18
1 48210C 21031A   22256.64393933  .00002293  00000+0  61934-2 0  2565
2 48210  87.9100 202.5898 0001812  80.8763  21.5350 13.14499562    11
1 48210C 21031A   22256.93803656 -.00002342  00000+0 -63246-2 0  2560
2 48210  87.9101 202.5315 0001817  81.0440 332.2973 13.14506411    11
1 48210C 21031A   22257.25852266  .00004071  00000+0  10994-1 0  2578
2 48210  87.9102 202.4681 0001817  80.8649  48.2239 13.14500136    12
1 48210C 21031A   22257.55852266 -.00000126  00000+0 -33966-3 0  2576
2 48210  87.9103 202.4088 0001812  80.6785  27.2636 13.14504018    19
1 48210C 21031A   22257.69984211  .00003677  00000+0  99291-2 0  2571
2 48210  87.9104 202.3808 0001813  80.6373 335.6789 13.14500855    13
1 48210C 21031A   22257.78560601  .00003073  00000+0  82991-2 0  2573
2 48210  87.9104 202.3638 0001819  80.7259  21.2093 13.14502992    14
1 48210C 21031A   22257.85296711  .00000574  00000+0  15505-2 0  2579
2 48210  87.9104 202.3505 0001819  80.6984 339.8199 13.14506086    14
1 48210C 21031A   22258.00296712 -.00002512  00000+0 -67836-2 0  2589
2 48210  87.9105 202.3209 0001812  80.7312 329.2162 13.14507723    17
1 48210C 21031A   22258.15956433  .00002533  00000+0  68411-2 0  2589
2 48210  87.9105 202.2899 0001810  80.5421 350.0390 13.14502305    14
1 48210C 21031A   22258.24810601  .00004050  00000+0  10937-1 0  2580
2 48210  87.9105 202.2724 0001816  80.5662  48.7734 13.14502099    17
1 48210C 21031A   22258.31824488  .00002684  00000+0  72474-2 0  2582
2 48210  87.9105 202.2585 0001817  80.6387  20.4216 13.14504573    19
1 48210C 21031A   22258.39567544  .00000000  00000+0 -62018-6 0  2585
2 48210  87.9105 202.2432 0001814  80.7010  26.5669 13.14507493    14
1 48210C 21031A   22258.54810599 -.00000475  00000+0 -12837-2 0  2580
2 48210  87.9106 202.2131 0001810  80.4375  27.7572 13.14506415    17
1 48210C 21031A   22258.68873099  .00003389  00000+0  91527-2 0  2587
2 48210  87.9106 202.1852 0001810  80.4031 332.8827 13.14502954    12
1 48210C 21031A   22258.83352267  .00001058  00000+0  28558-2 0  2588
2 48210  87.9106 202.1566 0001814  80.3758 297.7009 13.14507480    13
1 48210C 21031A   22259.30780508  .00002469  00000+0  66679-2 0  2598
2 48210  87.9107 202.0628 0001814  80.5322  20.6773 13.14506299    19
1 48210C 21031A   22259.59808285  .00000639  00000+0  17250-2 0  2590
2 48210  87.9107 202.0055 0001803  80.4400 313.6490 13.14506361    18
1 48210C 21031A   22259.83176341  .00000472  00000+0  12742-2 0  2594
2 48210  87.9107 201.9593 0001811  80.3815 338.9022 13.14509134    13
1 48210C 21031A   22260.14634674  .00001315  00000+0  35523-2 0  2609
2 48210  87.9107 201.8971 0001799  80.2887  26.8316 13.14505898    17
1 48210C 21031A   22260.45016618 -.00002263  00000+0 -61112-2 0  2603
2 48210  87.9106 201.8371 0001799  80.5722  23.4669 13.14511041    12
1 48210C 21031A   22260.74495785  .00002432  00000+0  65674-2 0  2604
2 48210  87.9106 201.7788 0001801  80.4484 337.8201 13.14506285    19
1 48210C 21031A   22261.04738840 -.00002671  00000+0 -72125-2 0  2617
2 48210  87.9105 201.7191 0001790  80.6921 327.9311 13.14509677    11
1 48210C 21031A   22261.36405507 -.00001891  00000+0 -51067-2 0  2618
2 48210  87.9104 201.6565 0001795  81.0722  25.2329 13.14510552    14
1 48210C 21031A   22261.65744627 -.00002386  00000+0 -64446-2 0  2614
2 48210  87.9104 201.5985 0001788  81.0652 332.8474 13.14507146    16
1 48210C 21031A   22261.97689072 -.00006589  00000+0 -17794-1 0  2613
2 48210  87.9103 201.5354 0001784  81.4657  43.2657 13.14509681    12
1 48210C 21031A   22262.28071016  .00001439  00000+0  38851-2 0  2627
2 48210  87.9102 201.4753 0001787  81.8923  39.7620 13.14501432    12
1 48210C 21031A   22262.28071016  .00001439  00000+0  38866-2 0  2623
2 48210  87.9102 201.4753 0001787  81.8923  39.7620 13.14501432    12
1 48210C 21031A   22262.72380044  .00001856  00000+0  50132-2 0  2629
2 48210  87.9101 201.3877 0001785  81.9430 335.3129 13.14499703    15
1 48210C 21031A   22263.04251572 -.00003245  00000+0 -87645-2 0  2634
2 48210  87.9100 201.3247 0001780  82.0889  42.5330 13.14502945    14
1 48210C 21031A   22263.27029350  .00001579  00000+0  42651-2 0  2630
2 48210  87.9100 201.2797 0001786  82.3842  39.5142 13.14499366    10
1 48210C 21031A   22263.55605738 -.00001522  00000+0 -41111-2 0  2631
2 48210  87.9099 201.2232 0001779  82.5271 310.8941 13.14500354    13
1 48210C 21031A   22263.79876573  .00000156  00000+0  42220-3 0  2637
2 48210  87.9099 201.1752 0001789  82.6366  18.6716 13.14500494    14
1 48210C 21031A   22264.10883516 -.00000410  00000+0 -11084-2 0  2647
2 48210  87.9099 201.1139 0001783  82.5284  45.2578 13.14498084    18
1 48210C 21031A   22264.40849951 -.00002285  00000+0 -61713-2 0  2641
2 48210  87.9099 201.0546 0001786  82.9122  22.1316 13.14501640    14
1 48210C 21031A   22264.62238840  .00001024  00000+0  27647-2 0  2640
2 48210  87.9100 201.0123 0001781  82.8614 313.7748 13.14496293    13
1 48210C 21031A   22264.92968007 -.00003844  00000+0 -10382-1 0  2649
2 48210  87.9100 200.9516 0001791  83.0247 326.9410 13.14502331    16
1 48210C 21031A   22265.16961063  .00002272  00000+0  61370-2 0  2658
2 48210  87.9101 200.9041 0001791  82.8402  21.8817 13.14494974    15
1 48210C 21031A   22265.39808285 -.00001619  00000+0 -43713-2 0  2656
2 48210  87.9102 200.8589 0001792  83.1240  22.1509 13.14500418    10
1 48210C 21031A   22265.69218007  .00002866  00000+0  77395-2 0  2652
2 48210  87.9103 200.8007 0001792  82.8977 333.3129 13.14494935    10
1 48210C 21031A   22265.69218007  .00002866  00000+0  77397-2 0  2654
2 48210  87.9103 200.8007 0001792  82.8977 333.3129 13.14494935    10
1 48210C 21031A   22266.01093007 -.00002649  00000+0 -71558-2 0  2667
2 48210  87.9104 200.7377 0001794  82.9173  40.8173 13.14499886    10
1 48210C 21031A   22266.31058285  .00001587  00000+0  42872-2 0  2664
2 48210  87.9106 200.6784 0001802  83.0724  17.8672 13.14497860    15
1 48210C 21031A   22266.60120785  .00001646  00000+0  44465-2 0  2667
2 48210  87.9108 200.6209 0001795  82.9356 312.5174 13.14495865    14
1 48210C 21031A   22266.83488840 -.00000248  00000+0 -66864-3 0  2668
2 48210  87.9109 200.5747 0001806  82.9010 337.7375 13.14500472    14
